{
    "links": {
        "self": "http://www.neowsapp.com/rest/v1/neo/3759674?api_key=iIulBulltgU6a56xZRHN4H3l9WmuAYTsLGpBGhQ2"
    },
    "id": "3759674",
    "neo_reference_id": "3759674",
    "name": "(2016 SB)",
    "designation": "2016 SB",
    "nasa_jpl_url": "http://ssd.jpl.nasa.gov/sbdb.cgi?sstr=3759674",
    "absolute_magnitude_h": 23.1,
    "estimated_diameter": {
        "kilometers": {
            "estimated_diameter_min": 0.063760979,
            "estimated_diameter_max": 0.1425738833
        },
        "meters": {
            "estimated_diameter_min": 63.7609789875,
            "estimated_diameter_max": 142.5738833281
        },
        "miles": {
            "estimated_diameter_min": 0.0396192233,
            "estimated_diameter_max": 0.0885912765
        },
        "feet": {
            "estimated_diameter_min": 209.1895703015,
            "estimated_diameter_max": 467.7620993781
        }
    },
    "is_potentially_hazardous_asteroid": false,
    "close_approach_data": [
        {
            "close_approach_date": "2014-09-20",
            "close_approach_date_full": "2014-Sep-20 02:08",
            "epoch_date_close_approach": 1411178880000,
            "relative_velocity": {
                "kilometers_per_second": "5.0932829294",
                "kilometers_per_hour": "18335.8185458028",
                "miles_per_hour": "11393.1645847518"
            },
            "miss_distance": {
                "astronomical": "1.377607203",
                "lunar": "535.889201967",
                "kilometers": "206087103.26545761",
                "miles": "128056587.906270618"
            },
            "orbiting_body": "Juptr"
        },
        {
            "close_approach_date": "2016-09-07",
            "close_approach_date_full": "2016-Sep-07 03:36",
            "epoch_date_close_approach": 1473219360000,
            "relative_velocity": {
                "kilometers_per_second": "14.4624959806",
                "kilometers_per_hour": "52064.9855301697",
                "miles_per_hour": "32351.1572590102"
            },
            "miss_distance": {
                "astronomical": "0.0406144556",
                "lunar": "15.7990232284",
                "kilometers": "6075836.048969572",
                "miles": "3775349.4555492136"
            },
            "orbiting_body": "Earth"
        }
    ],
    "orbital_data": {
        "orbit_id": "3",
        "orbit_determination_date": "2017-04-06 08:23:45",
        "first_observation_date": "2016-09-21",
        "last_observation_date": "2016-10-09",
        "data_arc_in_days": 18,
        "observations_used": 39,
        "orbit_uncertainty": "8",
        "minimum_orbit_intersection": ".0399781",
        "jupiter_tisserand_invariant": "3.088",
        "epoch_osculation": "2457653.5",
        "eccentricity": ".6306031693423665",
        "semi_major_axis": "2.558402674481635",
        "inclination": "14.48717565033334",
        "ascending_node_longitude": "350.6054401919474",
        "orbital_period": "1494.692231994763",
        "perihelion_distance": ".9450658394995292",
        "perihelion_argument": "314.2663860946835",
        "aphelion_distance": "4.171739509463741",
        "perihelion_time": "2457608.155602692044",
        "mean_anomaly": "10.92130050684665",
        "mean_motion": ".2408522586081529",
        "equinox": "J2000",
        "orbit_class": {
            "orbit_class_type": "APO",
            "orbit_class_description": "Near-Earth asteroid orbits which cross the Earth’s orbit similar to that of 1862 Apollo",
            "orbit_class_range": "a (semi-major axis) > 1.0 AU; q (perihelion) < 1.017 AU"
        }
    },
    "is_sentry_object": false
}